{
    "links": {
        "self": "http://www.neowsapp.com/rest/v1/neo/3989093?api_key=iIulBulltgU6a56xZRHN4H3l9WmuAYTsLGpBGhQ2"
    },
    "id": "3989093",
    "neo_reference_id": "3989093",
    "name": "(2020 BL5)",
    "designation": "2020 BL5",
    "nasa_jpl_url": "http://ssd.jpl.nasa.gov/sbdb.cgi?sstr=3989093",
    "absolute_magnitude_h": 20.748,
    "estimated_diameter": {
        "kilometers": {
            "estimated_diameter_min": 0.1883453821,
            "estimated_diameter_max": 0.4211530777
        },
        "meters": {
            "estimated_diameter_min": 188.3453821345,
            "estimated_diameter_max": 421.1530777009
        },
        "miles": {
            "estimated_diameter_min": 0.1170323584,
            "estimated_diameter_max": 0.261692309
        },
        "feet": {
            "estimated_diameter_min": 617.9310635221,
            "estimated_diameter_max": 1381.7358634441
        }
    },
    "is_potentially_hazardous_asteroid": false,
    "close_approach_data": [
        {
            "close_approach_date": "2020-02-21",
            "close_approach_date_full": "2020-Feb-21 01:52",
            "epoch_date_close_approach": 1582249920000,
            "relative_velocity": {
                "kilometers_per_second": "24.5056503216",
                "kilometers_per_hour": "88220.3411577809",
                "miles_per_hour": "54816.6892044"
            },
            "miss_distance": {
                "astronomical": "0.3234376516",
                "lunar": "125.8172464724",
                "kilometers": "48385583.757162092",
                "miles": "30065407.5952251896"
            },
            "orbiting_body": "Earth"
        },
        {
            "close_approach_date": "2034-05-31",
            "close_approach_date_full": "2034-May-31 21:35",
            "epoch_date_close_approach": 2032724100000,
            "relative_velocity": {
                "kilometers_per_second": "8.7841970255",
                "kilometers_per_hour": "31623.1092918182",
                "miles_per_hour": "19649.3703263522"
            },
            "miss_distance": {
                "astronomical": "1.4895029995",
                "lunar": "579.4166668055",
                "kilometers": "222826476.083811065",
                "miles": "138457951.857940097"
            },
            "orbiting_body": "Juptr"
        }
    ],
    "orbital_data": {
        "orbit_id": "6",
        "orbit_determination_date": "2020-03-10 05:53:56",
        "first_observation_date": "2020-01-20",
        "last_observation_date": "2020-02-21",
        "data_arc_in_days": 32,
        "observations_used": 31,
        "orbit_uncertainty": "7",
        "minimum_orbit_intersection": ".177513",
        "jupiter_tisserand_invariant": "2.931",
        "epoch_osculation": "2459000.5",
        "eccentricity": ".6031653839766515",
        "semi_major_axis": "2.640602687617637",
        "inclination": "32.33136970170336",
        "ascending_node_longitude": "153.34437176",
        "orbital_period": "1567.303192879806",
        "perihelion_distance": "1.047882553610967",
        "perihelion_argument": "48.16546938760784",
        "aphelion_distance": "4.233322821624307",
        "perihelion_time": "2458930.580797637827",
        "mean_anomaly": "16.06001504031432",
        "mean_motion": ".2296939109391631",
        "equinox": "J2000",
        "orbit_class": {
            "orbit_class_type": "AMO",
            "orbit_class_description": "Near-Earth asteroid orbits similar to that of 1221 Amor",
            "orbit_class_range": "1.017 AU < q (perihelion) < 1.3 AU"
        }
    },
    "is_sentry_object": false
}